[
    {
        "Altitude(m)": 554405.482847511,
        "Argument of Periapsis(deg)": 0.0,
        "Eccentricity": 0.0,
        "Inclination(deg)": 53.0,
        "Latitude(deg)": 25.65239812584103,
        "Longitude(deg)": 121.12523374099386,
        "Mean Anomaly(deg)": 32.727299999999985,
        "RAAN(deg)": 200.0,
        "Satellite Name": "Starlink Shell 1 882",
        "Satellite Number": 882,
        "Semi-Major Axis(m)": 6931778.249405717,
        "Time(s)": 0
    },
    {
        "Altitude(m)": 554467.1639767372,
        "Argument of Periapsis(deg)": 0.00034857847951123687,
        "Eccentricity": 0.0,
        "Inclination(deg)": 53.0,
        "Latitude(deg)": 26.12112668170524,
        "Longitude(deg)": 121.54885425014966,
        "Mean Anomaly(deg)": 33.354131203556705,
        "RAAN(deg)": 199.99948122992257,
        "Satellite Name": "Starlink Shell 1 882",
        "Satellite Number": 882,
        "Semi-Major Axis(m)": 6931778.249405717,
        "Time(s)": 10
    },
    {
        "Altitude(m)": 554530.3447914952,
        "Argument of Periapsis(deg)": 0.0006971569590224737,
        "Eccentricity": 0.0,
        "Inclination(deg)": 53.0,
        "Latitude(deg)": 26.588314328487193,
        "Longitude(deg)": 121.97619043993481,
        "Mean Anomaly(deg)": 33.9809624071134,
        "RAAN(deg)": 199.99896245984505,
        "Satellite Name": "Starlink Shell 1 882",
        "Satellite Number": 882,
        "Semi-Major Axis(m)": 6931778.249405717,
        "Time(s)": 20
    },
    {
        "Altitude(m)": 554594.9751548313,
        "Argument of Periapsis(deg)": 0.0010457354385337105,
        "Eccentricity": 0.0,
        "Inclination(deg)": 53.0,
        "Latitude(deg)": 27.053917206437323,
        "Longitude(deg)": 122.40733696920728,
        "Mean Anomaly(deg)": 34.60779361067017,
        "RAAN(deg)": 199.9984436897676,
        "Satellite Name": "Starlink Shell 1 882",
        "Satellite Number": 882,
        "Semi-Major Axis(m)": 6931778.249405717,
        "Time(s)": 30
    },
    {
        "Altitude(m)": 554661.0043837199,
        "Argument of Periapsis(deg)": 0.0013943139180449475,
        "Eccentricity": 0.0,
        "Inclination(deg)": 53.0,
        "Latitude(deg)": 27.517890511531554,
        "Longitude(deg)": 122.84239031093398,
        "Mean Anomaly(deg)": 35.23462481422684,
        "RAAN(deg)": 199.9979249196901,
        "Satellite Name": "Starlink Shell 1 882",
        "Satellite Number": 882,
        "Semi-Major Axis(m)": 6931778.249405717,
        "Time(s)": 40
    },
    {
        "Altitude(m)": 554728.3812761839,
        "Argument of Periapsis(deg)": 0.0017428923975561844,
        "Eccentricity": 0.0,
        "Inclination(deg)": 53.0,
        "Latitude(deg)": 27.980188466782646,
        "Longitude(deg)": 123.28144775058051,
        "Mean Anomaly(deg)": 35.86145601778359,
        "RAAN(deg)": 199.9974061496126,
        "Satellite Name": "Starlink Shell 1 882",
        "Satellite Number": 882,
        "Semi-Major Axis(m)": 6931778.249405717,
        "Time(s)": 50
    },
    {
        "Altitude(m)": 554797.0541386298,
        "Argument of Periapsis(deg)": 0.002091470877067421,
        "Eccentricity": 0.0,
        "Inclination(deg)": 53.0,
        "Latitude(deg)": 28.44076429304969,
        "Longitude(deg)": 123.72460789495275,
        "Mean Anomaly(deg)": 36.488287221340315,
        "RAAN(deg)": 199.99688737953517,
        "Satellite Name": "Starlink Shell 1 882",
        "Satellite Number": 882,
        "Semi-Major Axis(m)": 6931778.249405717,
        "Time(s)": 60
    },
    {
        "Altitude(m)": 554866.9708133487,
        "Argument of Periapsis(deg)": 0.0024400493565786582,
        "Eccentricity": 0.0,
        "Inclination(deg)": 53.0,
        "Latitude(deg)": 28.899570179361856,
        "Longitude(deg)": 124.17197117839714,
        "Mean Anomaly(deg)": 37.115118424896984,
        "RAAN(deg)": 199.9963686094577,
        "Satellite Name": "Starlink Shell 1 882",
        "Satellite Number": 882,
        "Semi-Major Axis(m)": 6931778.249405717,
        "Time(s)": 70
    },
    {
        "Altitude(m)": 554938.0787062817,
        "Argument of Periapsis(deg)": 0.002788627836089895,
        "Eccentricity": 0.0,
        "Inclination(deg)": 53.0,
        "Latitude(deg)": 29.356557252773634,
        "Longitude(deg)": 124.62363885324908,
        "Mean Anomaly(deg)": 37.74194962845373,
        "RAAN(deg)": 199.9958498393802,
        "Satellite Name": "Starlink Shell 1 882",
        "Satellite Number": 882,
        "Semi-Major Axis(m)": 6931778.249405717,
        "Time(s)": 80
    },
    {
        "Altitude(m)": 555010.3248148776,
        "Argument of Periapsis(deg)": 0.0031372063156011316,
        "Eccentricity": 0.0,
        "Inclination(deg)": 53.0,
        "Latitude(deg)": 29.81167554777062,
        "Longitude(deg)": 125.07971349002676,
        "Mean Anomaly(deg)": 38.368780832010394,
        "RAAN(deg)": 199.99533106930275,
        "Satellite Name": "Starlink Shell 1 882",
        "Satellite Number": 882,
        "Semi-Major Axis(m)": 6931778.249405717,
        "Time(s)": 90
    },
    {
        "Altitude(m)": 555083.6557561647,
        "Argument of Periapsis(deg)": 0.0034857847951123688,
        "Eccentricity": 0.0,
        "Inclination(deg)": 53.0,
        "Latitude(deg)": 30.264873975250783,
        "Longitude(deg)": 125.540299474231,
        "Mean Anomaly(deg)": 38.99561203556717,
        "RAAN(deg)": 199.9948122992253,
        "Satellite Name": "Starlink Shell 1 882",
        "Satellite Number": 882,
        "Semi-Major Axis(m)": 6931778.249405717,
        "Time(s)": 100
    },
    {
        "Altitude(m)": 555158.017794931,
        "Argument of Periapsis(deg)": 0.003834363274623606,
        "Eccentricity": 0.0,
        "Inclination(deg)": 53.0,
        "Latitude(deg)": 30.716100291110948,
        "Longitude(deg)": 126.00550198658931,
        "Mean Anomaly(deg)": 39.62244323912387,
        "RAAN(deg)": 199.9942935291478,
        "Satellite Name": "Starlink Shell 1 882",
        "Satellite Number": 882,
        "Semi-Major Axis(m)": 6931778.249405717,
        "Time(s)": 110
    },
    {
        "Altitude(m)": 555233.3568720748,
        "Argument of Periapsis(deg)": 0.004182941754134842,
        "Eccentricity": 0.0,
        "Inclination(deg)": 53.0,
        "Latitude(deg)": 31.165301064469457,
        "Longitude(deg)": 126.47542749219498,
        "Mean Anomaly(deg)": 40.24927444268059,
        "RAAN(deg)": 199.99377475907033,
        "Satellite Name": "Starlink Shell 1 882",
        "Satellite Number": 882,
        "Semi-Major Axis(m)": 6931778.249405717,
        "Time(s)": 120
    },
    {
        "Altitude(m)": 555309.6186330306,
        "Argument of Periapsis(deg)": 0.004531520233646079,
        "Eccentricity": 0.0,
        "Inclination(deg)": 53.0,
        "Latitude(deg)": 31.61242164556275,
        "Longitude(deg)": 126.95018422534436,
        "Mean Anomaly(deg)": 40.876105646237306,
        "RAAN(deg)": 199.9932559889929,
        "Satellite Name": "Starlink Shell 1 882",
        "Satellite Number": 882,
        "Semi-Major Axis(m)": 6931778.249405717,
        "Time(s)": 130
    },
    {
        "Altitude(m)": 555386.7484563059,
        "Argument of Periapsis(deg)": 0.0048800987131573164,
        "Eccentricity": 0.0,
        "Inclination(deg)": 53.0,
        "Latitude(deg)": 32.05740613336164,
        "Longitude(deg)": 127.4298811568611,
        "Mean Anomaly(deg)": 41.502936849794004,
        "RAAN(deg)": 199.99273721891538,
        "Satellite Name": "Starlink Shell 1 882",
        "Satellite Number": 882,
        "Semi-Major Axis(m)": 6931778.249405717,
        "Time(s)": 140
    },
    {
        "Altitude(m)": 555464.6914821338,
        "Argument of Periapsis(deg)": 0.005228677192668553,
        "Eccentricity": 0.0,
        "Inclination(deg)": 53.0,
        "Latitude(deg)": 32.50019734295191,
        "Longitude(deg)": 127.91462846929794,
        "Mean Anomaly(deg)": 42.12976805335072,
        "RAAN(deg)": 199.9922184488379,
        "Satellite Name": "Starlink Shell 1 882",
        "Satellite Number": 882,
        "Semi-Major Axis(m)": 6931778.249405717,
        "Time(s)": 150
    },
    {
        "Altitude(m)": 555543.3926411582,
        "Argument of Periapsis(deg)": 0.00557725567217979,
        "Eccentricity": 0.0,
        "Inclination(deg)": 53.0,
        "Latitude(deg)": 32.940736772735846,
        "Longitude(deg)": 128.40453802676558,
        "Mean Anomaly(deg)": 42.75659925690744,
        "RAAN(deg)": 199.99169967876043,
        "Satellite Name": "Starlink Shell 1 882",
        "Satellite Number": 882,
        "Semi-Major Axis(m)": 6931778.249405717,
        "Time(s)": 160
    },
    {
        "Altitude(m)": 555622.7966831976,
        "Argument of Periapsis(deg)": 0.0059258341516910265,
        "Eccentricity": 0.0,
        "Inclination(deg)": 53.0,
        "Latitude(deg)": 33.37896457151753,
        "Longitude(deg)": 128.899722326115,
        "Mean Anomaly(deg)": 43.38343046046414,
        "RAAN(deg)": 199.99118090868294,
        "Satellite Name": "Starlink Shell 1 882",
        "Satellite Number": 882,
        "Semi-Major Axis(m)": 6931778.249405717,
        "Time(s)": 170
    },
    {
        "Altitude(m)": 555702.8482060602,
        "Argument of Periapsis(deg)": 0.006274412631202263,
        "Eccentricity": 0.0,
        "Inclination(deg)": 53.0,
        "Latitude(deg)": 33.81481950553657,
        "Longitude(deg)": 129.40029495480675,
        "Mean Anomaly(deg)": 44.01026166402087,
        "RAAN(deg)": 199.9906621386055,
        "Satellite Name": "Starlink Shell 1 882",
        "Satellite Number": 882,
        "Semi-Major Axis(m)": 6931778.249405717,
        "Time(s)": 180
    }
]